C/2022 U3 (Bok),h,07/28.6224/2024,33.6606,272.7868,189.1212,1.000990,4.826435,2000,7.5,4.0
# From MPEC 2023-W26
C/2022 U4 (Bok),e,52.0470,132.9161,88.9951,2751,0.0000068,0.99894652,0.0000,08/03.6208/2023,2000,g 10.5,4.0
# From MPEC 2024-H50
C/2022 V2 (Lemmon),e,98.9014,332.8644,168.9485,36.68555,0.0044357,0.94374511,1.8147,12/15.0/2024,2000,g 12.0,4.0
# From MPEC 2023-CD7
P/2022 W1 (Rankin),e,13.4654,38.8219,17.9016,6.973838,0.0535176,0.51661922,43.9297,12/15.0/2024,2000,g 12.5,4.0
# From MPEC 2024-EF7
C/2022 W2 (ATLAS),e,63.5100,320.4438,123.2957,343.9770,0.0001545,0.99091851,0.0000,03/08.7751/2023,2000,g 11.5,4.0
# From MPEC 2024-C04
C/2022 W3 (Leonard),e,103.5741,132.2883,116.5235,278.5324,0.0002120,0.99498237,0.0000,06/22.7797/2023,2000,g 13.0,4.0
# From MPEC 2023-M14
C/2022 Y1 (Hogan),e,18.8553,285.8832,174.8409,12.60182,0.0220320,0.76517740,16.4893,12/15.0/2024,2000,g  9.0,4.0
# From MPEC 2023-TM6
C/2022 Y2 (Lemmon),e,165.8844,216.3507,105.4192,19.69422,0.0112771,0.87099947,7.1455,12/15.0/2024,2000,g 13.5,4.0
# From MPEC 2024-GJ3
C/2023 A1 (Leonard),e,94.7387,318.2821,159.2489,221.0346,0.0002999,0.99169732,0.0000,03/18.6423/2023,2000,g 14.5,4.0
# From MPEC 2023-J95
C/2023 A2 (SWAN),e,94.7073,94.5041,142.5222,421.6390,0.0001138,0.99775629,0.0000,01/20.3629/2023,2000,g 13.5,4.0
# From MPEC 2024-X74
C/2023 A3 (Tsuchinshan-ATLAS),h,09/27.7417/2024,139.1108,21.5599,308.4926,1.000096,0.391447,2000,6.5,3.2
# From MPEC 2024-F34
P/2023 B1 (PANSTARRS),e,14.5887,78.5585,81.6002,7.062163,0.0525167,0.13055181,31.1387,12/15.0/2024,2000,g  5.5,4.0
# From MPEC 2023-XP6
C/2023 B2 (ATLAS),e,40.7689,218.1093,317.3614,589.9397,0.0000688,0.99704812,0.0000,03/10.5297/2023,2000,g 14.5,4.0
# From MPEC 2023-F81
P/2023 B3 (PANSTARRS),e,9.1578,153.9944,240.3225,4.548926,0.1015876,0.12270071,158.5614,12/15.0/2024,2000,g 10.5,4.0
# From MPEC 2024-X74
C/2023 C2 (ATLAS),e,48.3205,301.0043,357.4566,2766,0.0000068,0.99914385,0.0000,11/16.8116/2024,2000,g  7.0,4.0
# From MPEC 2024-D33
C/2023 E1 (ATLAS),e,38.2805,164.5163,105.9664,19.30436,0.0116204,0.94676672,6.1940,12/15.0/2024,2000,g 15.5,4.0
# From MPEC 2023-N01
C/2023 F1 (PANSTARRS),e,131.6966,25.3056,216.7387,255.1752,0.0002418,0.99329905,0.0000,06/28.2515/2023,2000,g 16.0,4.0
# From MPEC 2024-UA9
C/2023 F3 (ATLAS),h,02/02.6402/2025,145.9636,109.4623,265.5313,1.003930,5.190792,2000,6.0,4.0
# From MPEC 2024-RQ6
C/2023 H1 (PANSTARRS),e,21.7816,292.6474,333.7631,763.3760,0.0000467,0.99417355,0.0000,11/28.7203/2024,2000,g  8.5,4.0
# From MPEC 2024-GJ3
C/2023 H2 (Lemmon),e,113.7527,217.0530,150.6662,244.7279,0.0002574,0.99634340,0.0000,10/29.1664/2023,2000,g 14.0,4.0
# From MPEC 2023-R20
C/2023 H3 (PANSTARRS),e,2.4891,55.0960,193.2853,13.61713,0.0196144,0.61574977,5.8928,12/15.0/2024,2000,g 10.0,4.0
# From MPEC 2023-SQ0
A/2023 H4,e,76.5868,230.8241,65.0109,145.4348,0.0005620,0.98540224,0.0000,08/08.8902/2023,2000,g 18.0,22.0
# From MPEC 2024-X74
C/2023 H5 (Lemmon),h,06/30.2008/2025,97.8575,159.4803,60.0863,1.000366,4.312775,2000,7.0,4.0
# From MPEC 2024-UA9
P/2023 JN16 (Lemmon),e,3.7026,11.8760,353.1513,2.695392,0.2227261,0.14680396,356.5262,12/15.0/2024,2000,g 14.0,4.0
# From MPEC 2024-GJ3
C/2023 K1 (ATLAS),e,137.9979,223.7031,337.4359,674.0754,0.0000563,0.99697529,0.0000,09/07.6704/2023,2000,g 13.0,4.0
# From MPEC 2023-N01
P/2023 M1 (PANSTARRS),e,12.2886,216.8604,79.6980,6.843636,0.0550521,0.58701105,20.1828,12/15.0/2024,2000,g 13.5,4.0
# From MPEC 2024-TD8
P/2023 M2 (PANSTARRS),e,19.7278,83.2500,243.2741,5.573331,0.0749086,0.36997287,38.0073,12/15.0/2024,2000,g 12.5,4.0
# From MPEC 2024-TP3
P/2023 M4 (ATLAS),e,7.5922,296.2911,320.5950,5.448682,0.0774938,0.27893749,75.6186,12/15.0/2024,2000,g  7.5,4.0
# From MPEC 2024-MB8
C/2023 P1 (Nishimura),e,132.4767,66.8457,116.2795,56.73211,0.0023065,0.99603874,0.0000,09/17.6461/2023,2000,g 10.0,4.0
# From MPEC 2024-X74
C/2023 Q1 (PANSTARRS),h,12/01.1424/2024,36.6428,7.1301,84.4149,1.005248,2.575703,2000,10.0,4.0
# From MPEC 2024-N80
C/2023 Q2 (PANSTARRS),e,104.0614,92.6794,171.7066,350.8189,0.0001500,0.99085150,0.0000,06/24.0108/2024,2000,g 11.5,4.0
# From MPEC 2024-X74
C/2023 R1 (PANSTARRS),h,04/13.5772/2026,149.3163,62.5556,144.2839,1.001913,3.569389,2000,6.0,4.0
# From MPEC 2024-L77
C/2023 R2 (PANSTARRS),h,08/12.1485/2024,30.6890,188.9107,337.3043,1.000233,0.905172,2000,10.5,4.0
# From MPEC 2023-UR6
A/2023 R3,e,12.0840,347.3488,86.9146,692.5750,0.0000541,0.99803924,0.0000,12/18.1934/2023,2000,g 20.0,22.0
# From MPEC 2024-X74
C/2023 RN3 (ATLAS),e,10.3531,207.0674,130.5548,10.17183,0.0303812,0.49094665,21.1062,12/15.0/2024,2000,g  7.5,4.0
# From MPEC 2024-X74
P/2023 S1,e,9.1569,317.2907,180.2851,3.845262,0.1307119,0.31872080,350.7064,12/15.0/2024,2000,g 11.5,4.0
# From MPEC 2023-XP6
C/2023 S2 (ATLAS),e,19.9029,229.8603,78.6085,207.2432,0.0003304,0.99488765,0.0000,10/16.1922/2023,2000,g 15.0,4.0
# From MPEC 2024-P23
C/2023 S3 (Lemmon),e,140.4972,233.8324,281.5585,28.47897,0.0064851,0.97086156,0.0000,01/19.6385/2024,2000,g 16.0,4.0
# From MPEC 2024-BE0
P/2023 T1 (PANSTARRS),e,6.6123,249.5760,202.8514,4.226202,0.1134433,0.33336707,23.3874,12/15.0/2024,2000,g 14.0,4.0
# From MPEC 2024-GJ3
C/2023 T2 (Borisov),e,48.5953,317.5309,111.2032,225.7690,0.0002905,0.99116033,0.0000,12/22.7849/2023,2000,g 14.5,4.0
# From MPEC 2024-X74
C/2023 T3 (Fuls),e,27.2221,246.0002,302.8464,789.0023,0.0000445,0.99550278,0.0000,01/25.3379/2025,2000,g  8.5,4.0
# From MPEC 2024-VB7
C/2023 TD22 (Lemmon),e,170.4898,5.5573,32.5377,48.22800,0.0029428,0.95113184,0.2640,12/15.0/2024,2000,g 12.5,4.0
# From MPEC 2024-X74
C/2023 U1 (Fuls),e,108.1457,305.8072,255.6292,2282,0.0000090,0.99782127,0.0000,10/12.7854/2024,2000,g  8.0,4.0
# From MPEC 2024-X74
C/2023 V1 (Lemmon),h,07/13.0383/2025,102.0135,15.0345,103.3124,1.000233,5.092570,2000,8.5,4.0
# From MPEC 2024-VJ2
P/2023 V2 (PANSTARRS),e,9.8881,95.4735,330.5344,7.226294,0.0507377,0.57044554,15.9917,12/15.0/2024,2000,g 13.5,4.0
# From MPEC 2024-A43
C/2023 V3 (PANSTARRS),e,40.5098,91.3217,291.8626,13.24009,0.0204582,0.66185608,10.1394,12/15.0/2024,2000,g 11.5,4.0
# From MPEC 2024-UQ8
C/2023 V4 (Camarasa-Duszanowicz),h,05/30.3721/2024,67.1303,66.3257,50.8608,1.001046,1.121765,2000,12.0,4.0
# From MPEC 2024-GJ3
C/2023 V5 (Leonard),h,12/13.8886/2023,73.5702,31.5196,56.9626,1.009380,0.846251,2000,21.5,4.0
# From MPEC 2024-UA9
P/2023 V6 (PANSTARRS),e,3.9709,189.7937,193.1505,5.309679,0.0805567,0.17631213,59.3791,12/15.0/2024,2000,g 11.5,4.0
# From MPEC 2024-GJ3
C/2023 X1 (Leonard),e,110.5872,137.0063,321.4640,157.0711,0.0005007,0.99394801,0.0000,10/18.0413/2023,2000,g 13.5,3.2
# From MPEC 2024-X74
C/2023 X2 (Lemmon),h,12/27.5680/2025,76.9936,66.3100,64.6916,1.000905,5.090549,2000,8.5,3.2
# From MPEC 2024-A43
P/2023 X3 (PANSTARRS),e,4.4834,62.0118,40.8352,4.245463,0.1126721,0.28623331,26.7017,12/15.0/2024,2000,g 15.5,4.0
# From MPEC 2024-JU4
C/2023 X4 (Hogan),e,11.5946,28.7670,100.5589,9.915039,0.0315691,0.63105123,6.4442,12/15.0/2024,2000,g 12.0,4.0
# From MPEC 2024-DA2
C/2023 X7 (PANSTARRS),h,05/15.0028/2025,69.0608,119.2043,354.3687,1.002674,4.820527,2000,9.0,4.0
# From MPEC 2024-JU4
P/2023 Y1 (Gibbs),e,6.3842,78.8556,51.4563,3.749439,0.1357546,0.44528360,51.7451,12/15.0/2024,2000,g 17.0,4.0
# From MPEC 2024-F34
P/2023 Y2 (Gibbs),e,6.9928,79.2276,16.8644,3.746177,0.1359320,0.39229538,67.0118,12/15.0/2024,2000,g 15.5,4.0
# From MPEC 2024-X74
C/2024 A1 (ATLAS),h,06/13.7152/2025,94.4467,112.1411,353.3094,1.001546,3.875405,2000,7.0,4.0
# From MPEC 2024-X74
C/2024 A2 (ATLAS),e,119.1167,78.1670,295.5633,32.58769,0.0052981,0.94227798,1.2190,12/15.0/2024,2000,g 12.5,4.0
# From MPEC 2024-X74
C/2024 B1 (Lemmon),h,10/07.7030/2024,70.9041,79.1878,66.2096,1.000838,1.633709,2000,13.0,4.0
# From MPEC 2024-X74
C/2024 B2 (Lemmon),e,99.8481,294.3788,130.3395,3727,0.0000043,0.99890603,0.0000,10/06.0869/2023,2000,g 11.5,4.0
# From MPEC 2024-M41
C/2024 C1 (PANSTARRS),e,14.2269,83.8088,94.4662,10.56994,0.0286811,0.58250202,3.0440,12/15.0/2024,2000,g 11.5,4.0
# From MPEC 2024-JU4
C/2024 C2 (PANSTARRS),e,27.2843,66.4411,87.5434,16.20828,0.0151042,0.44526099,358.7094,12/15.0/2024,2000,g  6.0,4.0
# From MPEC 2024-GJ3
C/2024 C3 (PANSTARRS),e,22.4598,359.7087,159.6568,11.65712,0.0247638,0.42416230,9.9744,12/15.0/2024,2000,g  9.0,4.0
# From MPEC 2024-Q20
C/2024 C4 (ATLAS),e,79.2856,220.6822,321.5106,83.75927,0.0012857,0.98243845,0.0000,01/30.1923/2024,2000,g 14.5,4.0
# From MPEC 2024-EG1
A/2024 D1,e,132.4473,179.6617,125.7522,1729,0.0000137,0.99612512,0.0000,12/05.2085/2027,2000,g 11.0,2.0
# From MPEC 2024-X74
C/2024 E1 (Wierzchos),h,01/20.7663/2026,75.2374,108.0866,243.6476,1.000031,0.565642,2000,7.0,4.0
# From MPEC 2024-JU4
C/2024 E2 (Bok),e,155.6469,135.6499,358.0722,51.62269,0.0026573,0.85097992,1.1099,12/15.0/2024,2000,g  8.0,4.0
# From MPEC 2024-JU4
P/2024 F1 (PANSTARRS),e,7.0056,251.5413,229.5559,3.443344,0.1542529,0.45993294,64.2156,12/15.0/2024,2000,g 16.0,4.0
# From MPEC 2024-Q20
C/2024 F2 (PANSTARRS),e,13.7415,138.9438,112.9040,9.947861,0.0314130,0.60109850,4.3638,12/15.0/2024,2000,g 11.0,4.0
# From MPEC 2024-UA9
P/2024 FG9 (Nanshan-Hahn),e,1.7313,253.0426,245.9189,3.256862,0.1676892,0.50983607,34.9864,12/15.0/2024,2000,g 14.0,4.0
# From MPEC 2024-PC5
C/2024 G1 (Wierzchos),e,95.3994,30.6014,128.2233,122.2101,0.0007295,0.96784051,0.0401,12/15.0/2024,2000,g 10.0,4.0
# From MPEC 2024-JU4
C/2024 G2 (ATLAS),e,122.1292,171.3990,328.7892,890.1627,0.0000371,0.99399464,0.0000,06/13.7506/2025,2000,g  7.0,4.0
# From MPEC 2024-X74
C/2024 G3 (ATLAS),h,01/13.4352/2025,116.8469,220.3375,108.1242,1.000004,0.093536,2000,9.0,4.0
# From MPEC 2024-P23
C/2024 G4 (PANSTARRS),e,33.0265,152.9911,131.4285,2974,0.0000061,0.99835217,0.0000,03/21.7341/2026,2000,g  8.0,4.0
# From MPEC 2024-JC6
C/2024 G5 (Leonard),e,50.3878,316.3971,209.5664,548.7973,0.0000767,0.99461938,0.0000,09/07.0113/2024,2000,g 13.0,4.0
# From MPEC 2024-RQ6
C/2024 G6 (ATLAS),h,02/20.9171/2026,120.4581,250.9518,23.4571,1.002357,6.429188,2000,5.5,4.0
# From MPEC 2024-Q20
